SKYSAT-A                
1 39418U 13066C   26112.56398101  .00002382  00000+0  13912-3 0  9999
2 39418  97.3867 163.7318 0022679 143.6188 216.6590 15.12642558680072
SKYSAT-B                
1 40072U 14037D   26112.37719832  .00001030  00000+0  11927-3 0  9996
2 40072  98.3795  68.1835 0006985  97.3233 262.8776 14.87874203637662
SKYSAT-C1               
1 41601U 16040C   26112.05281524  .00007913  00000+0  23266-3 0  9993
2 41601  96.9620 146.8389 0001977 175.1242 185.0022 15.35342457549253
SKYSAT-C4               
1 41771U 16058B   26112.79375907  .00011703  00000+0  23457-3 0  9994
2 41771  96.9224 136.9428 0003613 100.1748 259.9911 15.46851655536906
SKYSAT-C5               
1 41772U 16058C   26112.07184308  .00006554  00000+0  20367-3 0  9994
2 41772  97.0528 155.2326 0004818 120.5100 239.6619 15.33647559535140
SKYSAT-C2               
1 41773U 16058D   26112.81962454  .00008291  00000+0  20429-3 0  9992
2 41773  97.0221 137.0383 0001626 213.0446 147.0700 15.40805801536527
SKYSAT-C3               
1 41774U 16058E   26112.67089732  .00014843  00000+0  26414-3 0  9996
2 41774  96.9102 145.7200 0002655 106.6635 253.4910 15.50227448537508
SKYSAT-C11              
1 42987U 17068A   26112.83059536  .00019013  00000+0  28469-3 0  9998
2 42987  97.4288 259.3989 0001431 146.6347 213.4998 15.55016215474636
SKYSAT-C10              
1 42988U 17068B   26112.85095989  .00007566  00000+0  23504-3 0  9998
2 42988  97.4425 249.2276 0001569 113.4151 246.7257 15.33644925473877
SKYSAT-C9               
1 42989U 17068C   26112.84425946  .00009925  00000+0  24912-3 0  9993
2 42989  97.4347 249.6437 0007820 344.0772  16.0227 15.40183889474232
SKYSAT-C8               
1 42990U 17068D   26112.64332984  .00008146  00000+0  23591-3 0  9998
2 42990  97.4442 248.6122 0001194 110.4577 249.6795 15.35842709473786
SKYSAT-C7               
1 42991U 17068E   26112.63484544  .00007835  00000+0  22735-3 0  9991
2 42991  97.4452 249.5895 0004834 312.1992  47.8841 15.35785715473841
SKYSAT-C6               
1 42992U 17068F   26112.89225747  .00007175  00000+0  22433-3 0  9990
2 42992  97.4495 250.0015 0002076  15.2344 344.8961 15.33461712473847
SKYSAT-C12              
1 43797U 18099AR  26112.82495781  .00011560  00000+0  22956-3 0  9992
2 43797  96.9314 138.3493 0004067  29.5049 330.6431 15.47125421413292
SKYSAT-C13              
1 43802U 18099AW  26112.38994246  .00117835  00000+0  46641-3 0  9999
2 43802  96.9275 160.3897 0003968 105.4683 254.7028 15.86443349414075
FLOCK 4Q-16             
1 58271U 23174R   26112.18883905  .00016479  00000+0  32935-3 0  9995
2 58271  97.3818 199.1080 0005581  18.7115 341.4339 15.46865364136916
FLOCK 4Q-11             
1 58273U 23174T   26112.50777388  .00015382  00000+0  30286-3 0  9999
2 58273  97.3867 199.9669 0005209  15.6896 344.4514 15.47317300136979
FLOCK 4Q-36             
1 58274U 23174U   26112.50033179  .00023938  00000+0  37033-3 0  9996
2 58274  97.3845 203.0302 0005067 347.2203  12.8921 15.54057736137178
FLOCK 4Q-28             
1 58280U 23174AA  26112.71053883  .00018470  00000+0  31124-3 0  9990
2 58280  97.3878 202.2320 0003968 354.5986   5.5223 15.51732370137130
FLOCK 4Q-27             
1 58282U 23174AC  26112.51484842  .00019526  00000+0  33026-3 0  9999
2 58282  97.3808 201.5281 0003762 355.4916   4.6302 15.51616559137114
FLOCK 4Q-26             
1 58284U 23174AE  26112.49846541  .00021643  00000+0  33905-3 0  9995
2 58284  97.3866 203.1101 0004807 357.7603   2.3628 15.53731862137177
FLOCK 4Q-31             
1 58285U 23174AF  26112.72929664  .00024858  00000+0  38952-3 0  9998
2 58285  97.3898 202.9981 0004519 355.6000   4.5212 15.53698720137161
FLOCK 4Q-30             
1 58286U 23174AG  26111.80978977  .00028300  00000+0  44093-3 0  9997
2 58286  97.3925 202.2567 0003290   1.2379 358.8882 15.53837247137037
PELICAN-1               
1 58296U 23174AS  26111.80302475  .00179927  00000+0  14949-2 0  9990
2 58296  97.4024 208.6903 0004146 164.0561 196.0832 15.69604773137305
FLOCK 4Q-29             
1 58304U 23174BA  26112.90664288  .00024601  00000+0  40413-3 0  9999
2 58304  97.3923 202.8847 0004076 341.8630  18.2477 15.52388208137178
FLOCK 4Q-22             
1 58306U 23174BC  26112.71909598  .00026496  00000+0  38768-3 0  9990
2 58306  97.3808 203.0126 0002978 342.1448  17.9702 15.55578997137238
FLOCK 4Q-33             
1 58308U 23174BE  26112.80114274  .00020980  00000+0  32244-3 0  9996
2 58308  97.3848 202.9806 0004316 336.0020  24.1032 15.54269752137223
FLOCK 4Q-35             
1 58309U 23174BF  26112.23862942  .00024498  00000+0  39098-3 0  9998
2 58309  97.3874 202.5070 0004181 355.8849   4.2369 15.53194467137119
FLOCK 4Q-7              
1 58318U 23174BQ  26112.23896551  .00022263  00000+0  36991-3 0  9998
2 58318  97.3893 201.9812 0004828 342.2272  17.8811 15.52086382137066
FLOCK 4Q-2              
1 58320U 23174BS  26112.94227084  .00016023  00000+0  31647-3 0  9998
2 58320  97.3823 200.1765 0004774 346.1964  13.9155 15.47219640137057
FLOCK 4Q-9              
1 58322U 23174BU  26112.90440977  .00019233  00000+0  38127-3 0  9990
2 58322  97.3858 200.1855 0004755 347.9152  12.1983 15.47073517137033
FLOCK 4Q-4              
1 58327U 23174BZ  26112.72794608  .00014041  00000+0  28619-3 0  9995
2 58327  97.3815 199.3146 0005216  17.6888 342.4543 15.46330789136983
FLOCK 4Q-13             
1 58328U 23174CA  26112.48773577  .00017108  00000+0  31498-3 0  9997
2 58328  97.3988 201.7815 0005344   6.4277 353.7042 15.49229467137046
FLOCK 4BE-18            
1 60480U 24149N   26112.94880491  .00012531  00000+0  31546-3 0  9996
2 60480  97.3726 196.1777 0005158 103.1597 257.0225 15.40043379 93806
FLOCK 4BE-7             
1 60481U 24149P   26112.17645360  .00016984  00000+0  45613-3 0  9992
2 60481  97.3756 194.8686 0004440 109.2740 250.8986 15.37988034 93632
FLOCK 4BE-26            
1 60484U 24149S   26112.74053252  .00090988  00000+0  13809-2 0  9998
2 60484  97.3668 196.5513 0003932 146.4342 213.7162 15.54276822 93819
FLOCK 4BE-36            
1 60486U 24149U   26112.17285187  .00013250  00000+0  32385-3 0  9999
2 60486  97.3737 196.0076 0005221 112.5069 247.6731 15.40930307 93728
FLOCK 4BE-25            
1 60487U 24149V   26112.72349539  .00008913  00000+0  24553-3 0  9991
2 60487  97.3795 195.5602 0003836 106.3874 253.7792 15.37369699 93717
FLOCK 4BE-31            
1 60488U 24149W   26111.98678987  .00018264  00000+0  43086-3 0  9993
2 60488  97.3795 196.5346 0004168 114.6422 245.5260 15.41935200 93715
FLOCK 4BE-20            
1 60489U 24149X   26112.20291383  .00010433  00000+0  29435-3 0  9993
2 60489  97.3698 194.0583 0005360 110.3436 249.8385 15.36569202 93610
FLOCK 4BE-23            
1 60490U 24149Y   26112.50551044  .00010273  00000+0  29319-3 0  9994
2 60490  97.3778 194.7069 0005123 115.6367 244.5407 15.36214479 93648
FLOCK 4BE-15            
1 60491U 24149Z   26112.18891114  .00070266  00000+0  13344-2 0  9992
2 60491  97.3701 195.9781 0005943 181.4015 178.7220 15.48023586 93731
FLOCK 4BE-17            
1 60492U 24149AA  26112.17183490  .00012220  00000+0  32762-3 0  9995
2 60492  97.3771 195.1702 0004609 108.4730 251.7017 15.38119315 93646
FLOCK 4BE-22            
1 60494U 24149AC  26112.72243932  .00011463  00000+0  29451-3 0  9995
2 60494  97.3728 195.8318 0005149 112.9748 247.2041 15.39443152 93769
FLOCK 4BE-34            
1 60495U 24149AD  26112.15581340  .00013410  00000+0  34334-3 0  9991
2 60495  97.3776 196.0452 0005454 120.6763 239.5021 15.39509565 93704
FLOCK 4BE-32            
1 60497U 24149AF  26112.74003737  .00010678  00000+0  26728-3 0  9998
2 60497  97.3716 196.1501 0005353 117.3365 242.8426 15.40259141 93794
FLOCK 4BE-30            
1 60499U 24149AH  26112.23009441  .00059363  00000+0  12473-2 0  9997
2 60499  97.3793 196.4003 0003913 173.5116 186.6184 15.45131519 93103
FLOCK 4BE-11            
1 60501U 24149AK  26111.98584102  .00015958  00000+0  38754-3 0  9997
2 60501  97.3699 195.5640 0005405 119.1969 240.9819 15.41080069 93691
FLOCK 4BE-24            
1 60505U 24149AP  26112.94556311  .00014438  00000+0  35190-3 0  9992
2 60505  97.3713 196.7778 0005500 125.3853 234.7908 15.40991967 93859
TANAGER-1               
1 60507U 24149AR  26112.83530590  .00010834  00000+0  23794-3 0  9996
2 60507  97.3466 206.7872 0007495 138.8040 221.3776 15.44178777 94491
FLOCK 4BE-29            
1 60509U 24149AT  26112.48019274  .00014079  00000+0  32898-3 0  9990
2 60509  97.3803 197.5958 0004238 130.5992 229.5625 15.42281079 93824
FLOCK 4BE-2             
1 60511U 24149AV  26112.59720384  .00032980  00000+0  64749-3 0  9997
2 60511  97.3816 198.5586 0004898 131.4005 228.7667 15.47245929 93899
FLOCK 4BE-13            
1 60512U 24149AW  26112.18572293  .00012011  00000+0  29951-3 0  9996
2 60512  97.3714 196.0820 0005553 112.3675 247.8161 15.40342926 93744
FLOCK 4BE-27            
1 60513U 24149AX  26112.22400738  .00007657  00000+0  23912-3 0  9997
2 60513  97.3823 194.0906 0005400 132.5865 227.5834 15.33460344 93564
FLOCK 4BE-9             
1 60514U 24149AY  26112.53215519  .00010770  00000+0  28004-3 0  9990
2 60514  97.3788 196.3376 0004431 132.1717 227.9905 15.39095600 93755
FLOCK 4BE-6             
1 60516U 24149BA  26112.71486075  .00010819  00000+0  29109-3 0  9990
2 60516  97.3787 195.9780 0005215 130.3458 229.8243 15.38037097 93743
FLOCK 4BE-14            
1 60517U 24149BB  26112.22580919  .00013444  00000+0  34711-3 0  9991
2 60517  97.3693 195.5808 0006147 132.1110 228.0660 15.39246592 93711
FLOCK 4BE-1             
1 60518U 24149BC  26111.97282056  .00016147  00000+0  39676-3 0  9992
2 60518  97.3773 196.4092 0005713 133.1986 226.9738 15.40720889 93717
FLOCK 4BE-28            
1 60519U 24149BD  26112.71786662  .00013917  00000+0  31812-3 0  9994
2 60519  97.3744 197.7187 0005751 127.5445 232.6325 15.42934429 93887
